[{"OBJECT_NAME":"STARLINK-6084","OBJECT_ID":"2023-046U","EPOCH":"2026-03-09T22:32:44.656800","MEAN_MOTION":15.02533583,"ECCENTRICITY":0.0001231,"INCLINATION":43.0002,"RA_OF_ASC_NODE":157.2391,"ARG_OF_PERICENTER":271.488,"MEAN_ANOMALY":88.5821,"EPHEMERIS_TYPE":0,"CLASSIFICATION_TYPE":"U","NORAD_CAT_ID":56111,"ELEMENT_SET_NO":999,"REV_AT_EPOCH":16210,"BSTAR":-0.00012692478,"MEAN_MOTION_DOT":-1.918e-5,"MEAN_MOTION_DDOT":0},{"OBJECT_NAME":"HELIOS 1A","OBJECT_ID":"1995-033A","EPOCH":"2026-03-09T15:20:38.403168","MEAN_MOTION":15.05208405,"ECCENTRICITY":0.0012543,"INCLINATION":98.2085,"RA_OF_ASC_NODE":312.7113,"ARG_OF_PERICENTER":11.1866,"MEAN_ANOMALY":348.9636,"EPHEMERIS_TYPE":0,"CLASSIFICATION_TYPE":"U","NORAD_CAT_ID":23605,"ELEMENT_SET_NO":999,"REV_AT_EPOCH":65318,"BSTAR":0.00025897,"MEAN_MOTION_DOT":3.631e-5,"MEAN_MOTION_DDOT":0}]
